{
"type": "FeatureCollection",
"name": "birth_location_points",
"crs": { "type": "name", "properties": { "name": "urn:ogc:def:crs:OGC:1.3:CRS84" } },
"features": [
{ "type": "Feature", "properties": { "person_id": "P-0001", "primary_name": "Bonum Reed", "era": "Early Republic", "place_name": "Wills Creek, Coshocton County, Ohio, USA" }, "geometry": { "type": "Point", "coordinates": [ -81.85069, 40.18007 ] } },
{ "type": "Feature", "properties": { "person_id": "P-0002", "primary_name": "Rebecca (Talley) Reed", "era": "Early Republic", "place_name": "Talley Town, Morgan County, Ohio, USA" }, "geometry": { "type": "Point", "coordinates": [ -81.822435999999897, 39.652191 ] } },
{ "type": "Feature", "properties": { "person_id": "P-0006", "primary_name": "Sarah (Dickerson) Reed", "era": "Early Republic", "place_name": "Ohio" }, "geometry": { "type": "Point", "coordinates": [ -82.9071, 40.4173 ] } },
{ "type": "Feature", "properties": { "person_id": "P-0034", "primary_name": "John Foulk Reed", "era": "Gilded Age", "place_name": "Monteith, Guthrie County, Iowa, USA" }, "geometry": { "type": "Point", "coordinates": [ -94.428579, 41.6313758 ] } },
{ "type": "Feature", "properties": { "person_id": "P-0010", "primary_name": "Parmelia (Barnard) Lambert", "era": "Early Republic", "place_name": "Oneida, New York" }, "geometry": { "type": "Point", "coordinates": [ -75.651293, 43.092568 ] } },
{ "type": "Feature", "properties": { "person_id": "P-0011", "primary_name": "Abiram Stacy Lambert", "era": "Early Republic", "place_name": "Salem, Washington County, Indiana, USA" }, "geometry": { "type": "Point", "coordinates": [ -86.101089, 38.605614 ] } },
{ "type": "Feature", "properties": { "person_id": "P-0012", "primary_name": "Helen Amelia (Boles) Lambert", "era": "Early Republic", "place_name": "Rollin, Lenawee County, Michigan, USA" }, "geometry": { "type": "Point", "coordinates": [ -84.323903, 41.911234 ] } },
{ "type": "Feature", "properties": { "person_id": "P-0013", "primary_name": "Silas P. Boles", "era": "Early Republic", "place_name": "Miltor, Saratoga, New York" }, "geometry": { "type": "Point", "coordinates": [ -73.935982, 43.032425 ] } },
{ "type": "Feature", "properties": { "person_id": "P-0014", "primary_name": "Martha L. (Spear) Boles", "era": "Early Republic", "place_name": "Trumbell, Ohio" }, "geometry": { "type": "Point", "coordinates": [ -80.953982, 41.678111 ] } },
{ "type": "Feature", "properties": { "person_id": "P-0015", "primary_name": "Sherebiah Lambert Sr.", "era": "Colonial Era", "place_name": "York, Maine" }, "geometry": { "type": "Point", "coordinates": [ -70.648258, 43.161748 ] } },
{ "type": "Feature", "properties": { "person_id": "P-0016", "primary_name": "Lydia A. (Hopkins) Lambert", "era": "Colonial Era", "place_name": "Caroline, Maryland" }, "geometry": { "type": "Point", "coordinates": [ -75.853395, 38.910502 ] } },
{ "type": "Feature", "properties": { "person_id": "P-0017", "primary_name": "Sherebiah Lambert Jr.", "era": "Colonial Era", "place_name": "Massachusetts, United States" }, "geometry": { "type": "Point", "coordinates": [ -71.382437, 42.407211 ] } },
{ "type": "Feature", "properties": { "person_id": "P-0018", "primary_name": "Permelia M. Oak", "era": "Early Republic", "place_name": "Worcester, Massachusetts" }, "geometry": { "type": "Point", "coordinates": [ -71.802493, 42.262811 ] } },
{ "type": "Feature", "properties": { "person_id": "P-0036", "primary_name": "Estelle Gertrude Lambert", "era": "Gilded Age", "place_name": "Seely Township, Guthrie County, Iowa, USA" }, "geometry": { "type": "Point", "coordinates": [ -94.583079, 41.72916 ] } },
{ "type": "Feature", "properties": { "person_id": "P-0019", "primary_name": "Anton Zika", "era": "Civil War & Reconstruction", "place_name": "Bohemia" }, "geometry": { "type": "Point", "coordinates": [ 15.472962, 49.817492 ] } },
{ "type": "Feature", "properties": { "person_id": "P-0020", "primary_name": "Josefína “Josie” (Říha) Zika", "era": "Civil War & Reconstruction", "place_name": "Bohemia" }, "geometry": { "type": "Point", "coordinates": [ 15.472962, 49.817492 ] } },
{ "type": "Feature", "properties": { "person_id": "P-0021", "primary_name": "John F. Zika", "era": "Civil War & Reconstruction", "place_name": "VraÅ¾dovy Lhotice #16, BeneÅ¡ov, Bohemia, Austria" }, "geometry": { "type": "Point", "coordinates": [ 15.180881, 49.640546 ] } },
{ "type": "Feature", "properties": { "person_id": "P-0022", "primary_name": "Delina Beatrice (Pouliot) Zika", "era": "Gilded Age", "place_name": "Chicago, Cook County, Illinois, USA" }, "geometry": { "type": "Point", "coordinates": [ -87.62778, 41.88194 ] } },
{ "type": "Feature", "properties": { "person_id": "P-0023", "primary_name": "Paul Pouliot", "era": "Early Republic", "place_name": "Saint-Laurent-de-L'ÃŽle-d'OrlÃ©ans, L'ÃŽle-d'OrlÃ©ans, QuÃ©bec, Canada" }, "geometry": { "type": "Point", "coordinates": [ -71.008093, 46.860286 ] } },
{ "type": "Feature", "properties": { "person_id": "P-0024", "primary_name": "Henriette (Filiatrault dit St. Louis) Pouliot", "era": "Early Republic", "place_name": "Saint-Laurent-de-L'Île-d'Orléans, L'Île-d'Orléans, Québec, Canada" }, "geometry": { "type": "Point", "coordinates": [ -71.008093, 46.860286 ] } },
{ "type": "Feature", "properties": { "person_id": "P-0025", "primary_name": "François Pouliot", "era": "Early Republic", "place_name": "Saint-Laurent-de-L'Île-d'Orléans, L'Île-d'Orléans, Québec, Canada" }, "geometry": { "type": "Point", "coordinates": [ -71.008093, 46.860286 ] } },
{ "type": "Feature", "properties": { "person_id": "P-0026", "primary_name": "Julie Audet dit Lapointe", "era": "Early Republic", "place_name": "Saint-Laurent-de-L'Île-d'Orléans, L'Île-d'Orléans, Québec, Canada" }, "geometry": { "type": "Point", "coordinates": [ -71.008093, 46.860286 ] } },
{ "type": "Feature", "properties": { "person_id": "P-0027", "primary_name": "Joseph Filiatrault dit St. Louis", "era": "Early Republic", "place_name": "Saint-Laurent-de-L'Île-d'Orléans, L'Île-d'Orléans, Québec, Canada" }, "geometry": { "type": "Point", "coordinates": [ -71.008093, 46.860286 ] } },
{ "type": "Feature", "properties": { "person_id": "P-0028", "primary_name": "Henriette (Cheffre) Filiatrault", "era": "Early Republic", "place_name": "Saint-Laurent-de-L'Île-d'Orléans, L'Île-d'Orléans, Québec, Canada" }, "geometry": { "type": "Point", "coordinates": [ -71.008093, 46.860286 ] } },
{ "type": "Feature", "properties": { "person_id": "P-0029", "primary_name": "Earl Wayne Reed", "era": "Gilded Age", "place_name": "Guthrie County, Iowa, USA" }, "geometry": { "type": "Point", "coordinates": [ -94.498, 41.687 ] } },
{ "type": "Feature", "properties": { "person_id": "P-0030", "primary_name": "Isabelle (Zika) Reed", "era": "Progressive Era & WWI", "place_name": "Chicago, Cook County, Illinois" }, "geometry": { "type": "Point", "coordinates": [ -87.62778, 41.88194 ] } },
{ "type": "Feature", "properties": { "person_id": "P-0032", "primary_name": "John R. Reed", "era": "Roaring 20s & Great Depression", "place_name": "Chicago, Cook County, Illinois, USA" }, "geometry": { "type": "Point", "coordinates": [ -87.62778, 41.88194 ] } },
{ "type": "Feature", "properties": { "person_id": "P-0037", "primary_name": "Leah Rae Mariotti", "era": "Roaring 20s & Great Depression", "place_name": "Bedford, Taylor County, Iowa, USA" }, "geometry": { "type": "Point", "coordinates": [ -94.72389, 40.67111 ] } },
{ "type": "Feature", "properties": { "person_id": "P-0038", "primary_name": "James Willey", "era": "Early Republic", "place_name": "Greene, Pennsylvania, United States" }, "geometry": { "type": "Point", "coordinates": [ -80.2466384, 39.8513322 ] } },
{ "type": "Feature", "properties": { "person_id": "P-0039", "primary_name": "Emily Thorla", "era": "Early Republic", "place_name": "Greene, Pennsylvania, United States" }, "geometry": { "type": "Point", "coordinates": [ -80.2466384, 39.8513322 ] } },
{ "type": "Feature", "properties": { "person_id": "P-0040", "primary_name": "Benjamin Reed", "era": "Early Republic", "place_name": "Hunterdon, New Jersey, United States" }, "geometry": { "type": "Point", "coordinates": [ -74.9261552, 40.5770634 ] } },
{ "type": "Feature", "properties": { "person_id": "P-0041", "primary_name": "Sarah Dickerson", "era": "Early Republic", "place_name": "Washington, Pennsylvania, United States" }, "geometry": { "type": "Point", "coordinates": [ -80.2541251, 40.1943798 ] } },
{ "type": "Feature", "properties": { "person_id": "P-0042", "primary_name": "Stephen Reed", "era": "Colonial Era", "place_name": "Hopewell Township, Hunterdon, New Jerse" }, "geometry": { "type": "Point", "coordinates": [ -74.798009, 40.355363 ] } },
{ "type": "Feature", "properties": { "person_id": "P-0043", "primary_name": "Mary Polly Cook", "era": "Colonial Era", "place_name": "Hunterdon, New Jersey" }, "geometry": { "type": "Point", "coordinates": [ -74.920877, 40.566951 ] } },
{ "type": "Feature", "properties": { "person_id": "P-0044", "primary_name": "Else Alice Bonham", "era": "Colonial Era", "place_name": "Hunterdon, New Jersey, United States" }, "geometry": { "type": "Point", "coordinates": [ -74.9261552, 40.5770634 ] } },
{ "type": "Feature", "properties": { "person_id": "P-0045", "primary_name": "John Foulk Talley", "era": "Early Republic", "place_name": "Brandywine, New Castle, Delaware, United States" }, "geometry": { "type": "Point", "coordinates": [ -75.5343681, 39.8295563 ] } },
{ "type": "Feature", "properties": { "person_id": "P-0046", "primary_name": "Hannah Paulson", "era": "Early Republic", "place_name": "New Castle, Delaware, United States" }, "geometry": { "type": "Point", "coordinates": [ -75.662956, 39.6159851 ] } },
{ "type": "Feature", "properties": { "person_id": "P-0047", "primary_name": "Samuel R Barnard", "era": "Colonial Era", "place_name": "Simsbury, Hartford" }, "geometry": { "type": "Point", "coordinates": [ -72.8012211, 41.8759152 ] } },
{ "type": "Feature", "properties": { "person_id": "P-0048", "primary_name": "Roxana Desire Barnard", "era": "Colonial Era", "place_name": "Windsor, Hartford, Connecticut" }, "geometry": { "type": "Point", "coordinates": [ -72.643702, 41.852598 ] } },
{ "type": "Feature", "properties": { "person_id": "P-0049", "primary_name": "William Polk Willey", "era": "Early Republic", "place_name": "Nanticoke Hundred, Sussex, Delaware, United States" }, "geometry": { "type": "Point", "coordinates": [ -75.434473, 38.653084 ] } },
{ "type": "Feature", "properties": { "person_id": "P-0050", "primary_name": "Sarah Dye", "era": "Early Republic", "place_name": "Greene, Pennsylvania, United States" }, "geometry": { "type": "Point", "coordinates": [ -80.2466384, 39.8513322 ] } },
{ "type": "Feature", "properties": { "person_id": "P-0051", "primary_name": "Benjamin Thorla", "era": "Early Republic", "place_name": "New Hampshire, United States" }, "geometry": { "type": "Point", "coordinates": [ -71.6553992, 43.4849133 ] } },
{ "type": "Feature", "properties": { "person_id": "P-0052", "primary_name": "Elizabeth Allen", "era": "Early Republic", "place_name": "Lebanon, Grafton, New Hampshire, United States" }, "geometry": { "type": "Point", "coordinates": [ -72.251587, 43.643032 ] } },
{ "type": "Feature", "properties": { "person_id": "P-0055", "primary_name": "Robert Lanning", "era": "Colonial Era", "place_name": "Queens, New York" }, "geometry": { "type": "Point", "coordinates": [ -73.794852, 40.728224 ] } },
{ "type": "Feature", "properties": { "person_id": "P-0056", "primary_name": "Martha Hunt", "era": "Colonial Era", "place_name": "Hunterdon, New Jersey, United States" }, "geometry": { "type": "Point", "coordinates": [ -74.9261552, 40.5770634 ] } },
{ "type": "Feature", "properties": { "person_id": "P-0057", "primary_name": "John Lennen Lanning", "era": "Colonial Era", "place_name": "Monmouthshire, Wales" }, "geometry": { "type": "Point", "coordinates": [ -2.875924, 51.774928 ] } },
{ "type": "Feature", "properties": { "person_id": "P-0058", "primary_name": "John Lanyon", "era": "Colonial Era", "place_name": "Cornwall, England" }, "geometry": { "type": "Point", "coordinates": [ -4.652498, 50.50363 ] } },
{ "type": "Feature", "properties": { "person_id": "P-0059", "primary_name": "Elizabeth W. Taylor", "era": "Colonial Era", "place_name": "Monmouthshire, Wales" }, "geometry": { "type": "Point", "coordinates": [ -2.875924, 51.774928 ] } },
{ "type": "Feature", "properties": { "person_id": "P-0060", "primary_name": "Anne Thomas", "era": "Colonial Era", "place_name": "Cornwall, England" }, "geometry": { "type": "Point", "coordinates": [ -4.652498, 50.50363 ] } }
]
}
