{
"type": "FeatureCollection",
"name": "Person_Locations",
"crs": { "type": "name", "properties": { "name": "urn:ogc:def:crs:OGC:1.3:CRS84" } },
"features": [
{ "type": "Feature", "properties": { "PID_Person": "P-0001", "primary_name": "Bonum Reed", "place_id": "PL-0001", "place_name": "Wills Creek, Coshocton County, Ohio" }, "geometry": { "type": "Point", "coordinates": [ -81.85069, 40.18007 ] } },
{ "type": "Feature", "properties": { "PID_Person": "P-0002", "primary_name": "Rebecca (Talley) Reed", "place_id": "PL-0002", "place_name": "Monteith, Guthrie County, Iowa" }, "geometry": { "type": "Point", "coordinates": [ -94.428579, 41.6313758 ] } },
{ "type": "Feature", "properties": { "PID_Person": "P-0004", "primary_name": "Elizabeth (Willey) Reed", "place_id": "PL-0002", "place_name": "Monteith, Guthrie County, Iowa" }, "geometry": { "type": "Point", "coordinates": [ -94.428579, 41.6313758 ] } },
{ "type": "Feature", "properties": { "PID_Person": "P-0001", "primary_name": "Bonum Reed", "place_id": "PL-0002", "place_name": "Monteith, Guthrie County, Iowa" }, "geometry": { "type": "Point", "coordinates": [ -94.428579, 41.6313758 ] } },
{ "type": "Feature", "properties": { "PID_Person": "P-0003", "primary_name": "John Talley Reed", "place_id": "PL-0003", "place_name": "Woodsfield, Monroe County, Ohio" }, "geometry": { "type": "Point", "coordinates": [ -81.1146, 39.7636 ] } },
{ "type": "Feature", "properties": { "PID_Person": "P-0003", "primary_name": "John Talley Reed", "place_id": "PL-0004", "place_name": "Valley Township, Guthrie County, Iowa" }, "geometry": { "type": "Point", "coordinates": [ -94.479976, 41.753091 ] } },
{ "type": "Feature", "properties": { "PID_Person": "P-0029", "primary_name": "Earl Wayne Reed", "place_id": "PL-0004", "place_name": "Valley Township, Guthrie County, Iowa" }, "geometry": { "type": "Point", "coordinates": [ -94.479976, 41.753091 ] } },
{ "type": "Feature", "properties": { "PID_Person": "P-0011", "primary_name": "Abiram Stacy Lambert", "place_id": "PL-0005", "place_name": "Salem, Washington County, Indiana" }, "geometry": { "type": "Point", "coordinates": [ -86.101089, 38.605614 ] } },
{ "type": "Feature", "properties": { "PID_Person": "P-0006", "primary_name": "Sarah (Dickerson) Reed", "place_id": "PL-0006", "place_name": "Ohio" }, "geometry": { "type": "Point", "coordinates": [ -82.9071, 40.4173 ] } },
{ "type": "Feature", "properties": { "PID_Person": "P-0001", "primary_name": "Bonum Reed", "place_id": "PL-0007", "place_name": "Morgan County, Ohio" }, "geometry": { "type": "Point", "coordinates": [ -81.822436, 39.652191 ] } },
{ "type": "Feature", "properties": { "PID_Person": "P-0002", "primary_name": "Rebecca (Talley) Reed", "place_id": "PL-0007", "place_name": "Morgan County, Ohio" }, "geometry": { "type": "Point", "coordinates": [ -81.822436, 39.652191 ] } },
{ "type": "Feature", "properties": { "PID_Person": "P-0003", "primary_name": "John Talley Reed", "place_id": "PL-0008", "place_name": "Noble County, Ohio" }, "geometry": { "type": "Point", "coordinates": [ -81.427898, 39.746564 ] } },
{ "type": "Feature", "properties": { "PID_Person": "P-0004", "primary_name": "Elizabeth (Willey) Reed", "place_id": "PL-0008", "place_name": "Noble County, Ohio" }, "geometry": { "type": "Point", "coordinates": [ -81.427898, 39.746564 ] } },
{ "type": "Feature", "properties": { "PID_Person": "P-0011", "primary_name": "Abiram Stacy Lambert", "place_id": "PL-0009", "place_name": "Delaware County, Indiana" }, "geometry": { "type": "Point", "coordinates": [ -85.396277, 40.258353 ] } },
{ "type": "Feature", "properties": { "PID_Person": "P-0037", "primary_name": "Leah Rae Mariotti", "place_id": "PL-0009", "place_name": "Delaware County, Indiana" }, "geometry": { "type": "Point", "coordinates": [ -85.396277, 40.258353 ] } },
{ "type": "Feature", "properties": { "PID_Person": "P-0030", "primary_name": "Isabelle (Zika) Reed", "place_id": "PL-0010", "place_name": "Chicago, Cook County, Illinois" }, "geometry": { "type": "Point", "coordinates": [ -87.62778, 41.88194 ] } },
{ "type": "Feature", "properties": { "PID_Person": "P-0031", "primary_name": "Earl Wayne Reed Jr.", "place_id": "PL-0010", "place_name": "Chicago, Cook County, Illinois" }, "geometry": { "type": "Point", "coordinates": [ -87.62778, 41.88194 ] } },
{ "type": "Feature", "properties": { "PID_Person": "P-0033", "primary_name": "James G. Reed", "place_id": "PL-0010", "place_name": "Chicago, Cook County, Illinois" }, "geometry": { "type": "Point", "coordinates": [ -87.62778, 41.88194 ] } },
{ "type": "Feature", "properties": { "PID_Person": "P-0021", "primary_name": "John F. Zika", "place_id": "PL-0010", "place_name": "Chicago, Cook County, Illinois" }, "geometry": { "type": "Point", "coordinates": [ -87.62778, 41.88194 ] } },
{ "type": "Feature", "properties": { "PID_Person": "P-0022", "primary_name": "Delina Beatrice (Pouliot) Zika", "place_id": "PL-0010", "place_name": "Chicago, Cook County, Illinois" }, "geometry": { "type": "Point", "coordinates": [ -87.62778, 41.88194 ] } },
{ "type": "Feature", "properties": { "PID_Person": "P-0029", "primary_name": "Earl Wayne Reed", "place_id": "PL-0010", "place_name": "Chicago, Cook County, Illinois" }, "geometry": { "type": "Point", "coordinates": [ -87.62778, 41.88194 ] } },
{ "type": "Feature", "properties": { "PID_Person": "P-0021", "primary_name": "John F. Zika", "place_id": "PL-0011", "place_name": "Oakridge-Glen Oak Cemetery, Hillside, Illinois" }, "geometry": { "type": "Point", "coordinates": [ -87.8914, 41.8594 ] } },
{ "type": "Feature", "properties": { "PID_Person": "P-0019", "primary_name": "Anton Zika", "place_id": "PL-0012", "place_name": "Bohemia" }, "geometry": { "type": "Point", "coordinates": [ 15.472962, 49.817492 ] } },
{ "type": "Feature", "properties": { "PID_Person": "P-0020", "primary_name": "Josefína “Josie” (Říha) Zika", "place_id": "PL-0012", "place_name": "Bohemia" }, "geometry": { "type": "Point", "coordinates": [ 15.472962, 49.817492 ] } },
{ "type": "Feature", "properties": { "PID_Person": "P-0021", "primary_name": "John F. Zika", "place_id": "PL-0012", "place_name": "Bohemia" }, "geometry": { "type": "Point", "coordinates": [ 15.472962, 49.817492 ] } },
{ "type": "Feature", "properties": { "PID_Person": "P-0011", "primary_name": "Abiram Stacy Lambert", "place_id": "PL-0013", "place_name": "Corydon, Wayne County, Iowa" }, "geometry": { "type": "Point", "coordinates": [ -93.3183, 40.7556 ] } },
{ "type": "Feature", "properties": { "PID_Person": "P-0011", "primary_name": "Abiram Stacy Lambert", "place_id": "PL-0014", "place_name": "Atlanta, Georgia" }, "geometry": { "type": "Point", "coordinates": [ -84.388, 33.749 ] } },
{ "type": "Feature", "properties": { "PID_Person": "P-0012", "primary_name": "Helen Amelia (Boles) Lambert", "place_id": "PL-0015", "place_name": "Guthrie County, Iowa, USA" }, "geometry": { "type": "Point", "coordinates": [ -94.498, 41.687 ] } },
{ "type": "Feature", "properties": { "PID_Person": "P-0029", "primary_name": "Earl Wayne Reed", "place_id": "PL-0015", "place_name": "Guthrie County, Iowa, USA" }, "geometry": { "type": "Point", "coordinates": [ -94.498, 41.687 ] } },
{ "type": "Feature", "properties": { "PID_Person": "P-0011", "primary_name": "Abiram Stacy Lambert", "place_id": "PL-0015", "place_name": "Guthrie County, Iowa, USA" }, "geometry": { "type": "Point", "coordinates": [ -94.498, 41.687 ] } },
{ "type": "Feature", "properties": { "PID_Person": "P-0034", "primary_name": "John Foulk Reed", "place_id": "PL-0015", "place_name": "Guthrie County, Iowa, USA" }, "geometry": { "type": "Point", "coordinates": [ -94.498, 41.687 ] } },
{ "type": "Feature", "properties": { "PID_Person": "P-0003", "primary_name": "John Talley Reed", "place_id": "PL-0015", "place_name": "Guthrie County, Iowa, USA" }, "geometry": { "type": "Point", "coordinates": [ -94.498, 41.687 ] } },
{ "type": "Feature", "properties": { "PID_Person": "P-0004", "primary_name": "Elizabeth (Willey) Reed", "place_id": "PL-0015", "place_name": "Guthrie County, Iowa, USA" }, "geometry": { "type": "Point", "coordinates": [ -94.498, 41.687 ] } },
{ "type": "Feature", "properties": { "PID_Person": "P-0002", "primary_name": "Rebecca (Talley) Reed", "place_id": "PL-0015", "place_name": "Guthrie County, Iowa, USA" }, "geometry": { "type": "Point", "coordinates": [ -94.498, 41.687 ] } },
{ "type": "Feature", "properties": { "PID_Person": "P-0036", "primary_name": "Estelle Gertrude Lambert", "place_id": "PL-0016", "place_name": "Chicago, Cook County, Illinois, USA" }, "geometry": { "type": "Point", "coordinates": [ -87.62778, 41.88194 ] } },
{ "type": "Feature", "properties": { "PID_Person": "P-0021", "primary_name": "John F. Zika", "place_id": "PL-0016", "place_name": "Chicago, Cook County, Illinois, USA" }, "geometry": { "type": "Point", "coordinates": [ -87.62778, 41.88194 ] } },
{ "type": "Feature", "properties": { "PID_Person": "P-0022", "primary_name": "Delina Beatrice (Pouliot) Zika", "place_id": "PL-0016", "place_name": "Chicago, Cook County, Illinois, USA" }, "geometry": { "type": "Point", "coordinates": [ -87.62778, 41.88194 ] } },
{ "type": "Feature", "properties": { "PID_Person": "P-0023", "primary_name": "Paul Pouliot", "place_id": "PL-0016", "place_name": "Chicago, Cook County, Illinois, USA" }, "geometry": { "type": "Point", "coordinates": [ -87.62778, 41.88194 ] } },
{ "type": "Feature", "properties": { "PID_Person": "P-0024", "primary_name": "Henriette (Filiatrault dit St. Louis) Pouliot", "place_id": "PL-0016", "place_name": "Chicago, Cook County, Illinois, USA" }, "geometry": { "type": "Point", "coordinates": [ -87.62778, 41.88194 ] } },
{ "type": "Feature", "properties": { "PID_Person": "P-0032", "primary_name": "John R. Reed", "place_id": "PL-0016", "place_name": "Chicago, Cook County, Illinois, USA" }, "geometry": { "type": "Point", "coordinates": [ -87.62778, 41.88194 ] } },
{ "type": "Feature", "properties": { "PID_Person": "P-0030", "primary_name": "Isabelle (Zika) Reed", "place_id": "PL-0016", "place_name": "Chicago, Cook County, Illinois, USA" }, "geometry": { "type": "Point", "coordinates": [ -87.62778, 41.88194 ] } },
{ "type": "Feature", "properties": { "PID_Person": "P-0032", "primary_name": "John R. Reed", "place_id": "PL-0017", "place_name": "Glen Ellyn, DuPage County, Illinois, USA" }, "geometry": { "type": "Point", "coordinates": [ -88.06306, 41.87111 ] } },
{ "type": "Feature", "properties": { "PID_Person": "P-0032", "primary_name": "John R. Reed", "place_id": "PL-0018", "place_name": "Illinois, USA" }, "geometry": { "type": "Point", "coordinates": [ -89.1965, 40.0417 ] } },
{ "type": "Feature", "properties": { "PID_Person": "P-0032", "primary_name": "John R. Reed", "place_id": "PL-0019", "place_name": "Cicero Town, Cicero Township, Cook County, Illinois, USA" }, "geometry": { "type": "Point", "coordinates": [ -87.75917, 41.84444 ] } },
{ "type": "Feature", "properties": { "PID_Person": "P-0037", "primary_name": "Leah Rae Mariotti", "place_id": "PL-0020", "place_name": "Bedford, Taylor County, Iowa, USA" }, "geometry": { "type": "Point", "coordinates": [ -94.72389, 40.67111 ] } },
{ "type": "Feature", "properties": { "PID_Person": "P-0037", "primary_name": "Leah Rae Mariotti", "place_id": "PL-0021", "place_name": "1048 Alameda Dr, Aurora, IL 60506, USA" }, "geometry": { "type": "Point", "coordinates": [ -88.367734, 41.777981 ] } },
{ "type": "Feature", "properties": { "PID_Person": "P-0029", "primary_name": "Earl Wayne Reed", "place_id": "PL-0022", "place_name": "Valley Township, Guthrie Center city, Guthrie County, Iowa, USA" }, "geometry": { "type": "Point", "coordinates": [ -94.503304, 41.677209 ] } },
{ "type": "Feature", "properties": { "PID_Person": "P-0034", "primary_name": "John Foulk Reed", "place_id": "PL-0022", "place_name": "Valley Township, Guthrie Center city, Guthrie County, Iowa, USA" }, "geometry": { "type": "Point", "coordinates": [ -94.503304, 41.677209 ] } },
{ "type": "Feature", "properties": { "PID_Person": "P-0029", "primary_name": "Earl Wayne Reed", "place_id": "PL-0023", "place_name": "Waukesha, Waukesha County, Wisconsin, USA" }, "geometry": { "type": "Point", "coordinates": [ -88.23167, 43.01167 ] } },
{ "type": "Feature", "properties": { "PID_Person": "P-0029", "primary_name": "Earl Wayne Reed", "place_id": "PL-0024", "place_name": "Cicero, Cook County, Illinois, USA" }, "geometry": { "type": "Point", "coordinates": [ -87.75917, 41.84444 ] } },
{ "type": "Feature", "properties": { "PID_Person": "P-0029", "primary_name": "Earl Wayne Reed", "place_id": "PL-0026", "place_name": "4N711 Medinah Road, Addison, DuPage County, Illinois, USA" }, "geometry": { "type": "Point", "coordinates": [ -88.050542, 41.946344 ] } },
{ "type": "Feature", "properties": { "PID_Person": "P-0029", "primary_name": "Earl Wayne Reed", "place_id": "PL-0027", "place_name": "United States" }, "geometry": { "type": "Point", "coordinates": [ -98.5795, 39.8283 ] } },
{ "type": "Feature", "properties": { "PID_Person": "P-0021", "primary_name": "John F. Zika", "place_id": "PL-0027", "place_name": "United States" }, "geometry": { "type": "Point", "coordinates": [ -98.5795, 39.8283 ] } },
{ "type": "Feature", "properties": { "PID_Person": "P-0023", "primary_name": "Paul Pouliot", "place_id": "PL-0027", "place_name": "United States" }, "geometry": { "type": "Point", "coordinates": [ -98.5795, 39.8283 ] } },
{ "type": "Feature", "properties": { "PID_Person": "P-0011", "primary_name": "Abiram Stacy Lambert", "place_id": "PL-0027", "place_name": "United States" }, "geometry": { "type": "Point", "coordinates": [ -98.5795, 39.8283 ] } },
{ "type": "Feature", "properties": { "PID_Person": "P-0030", "primary_name": "Isabelle (Zika) Reed", "place_id": "PL-0028", "place_name": "Schaumburg Township, Cook County, Illinois, USA" }, "geometry": { "type": "Point", "coordinates": [ -88.069708, 42.026238 ] } },
{ "type": "Feature", "properties": { "PID_Person": "P-0030", "primary_name": "Isabelle (Zika) Reed", "place_id": "PL-0029", "place_name": "Glen Oak Cemetery, Proviso Township, Cook County, Illinois, USA" }, "geometry": { "type": "Point", "coordinates": [ -88.2052994, 41.8969002 ] } },
{ "type": "Feature", "properties": { "PID_Person": "P-0030", "primary_name": "Isabelle (Zika) Reed", "place_id": "PL-0030", "place_name": "Aurora Ward 2, Kane County, Illinois, USA" }, "geometry": { "type": "Point", "coordinates": [ -88.320071999999897, 41.760585 ] } },
{ "type": "Feature", "properties": { "PID_Person": "P-0021", "primary_name": "John F. Zika", "place_id": "PL-0030", "place_name": "Aurora Ward 2, Kane County, Illinois, USA" }, "geometry": { "type": "Point", "coordinates": [ -88.320071999999897, 41.760585 ] } },
{ "type": "Feature", "properties": { "PID_Person": "P-0022", "primary_name": "Delina Beatrice (Pouliot) Zika", "place_id": "PL-0031", "place_name": "Cook County, Illinois, USA" }, "geometry": { "type": "Point", "coordinates": [ -87.697599999999895, 41.7377 ] } },
{ "type": "Feature", "properties": { "PID_Person": "P-0030", "primary_name": "Isabelle (Zika) Reed", "place_id": "PL-0031", "place_name": "Cook County, Illinois, USA" }, "geometry": { "type": "Point", "coordinates": [ -87.697599999999895, 41.7377 ] } },
{ "type": "Feature", "properties": { "PID_Person": "P-0001", "primary_name": "Bonum Reed", "place_id": "PL-0032", "place_name": "Monteith, Guthrie County, Iowa, USA" }, "geometry": { "type": "Point", "coordinates": [ -94.428579, 41.6313758 ] } },
{ "type": "Feature", "properties": { "PID_Person": "P-0034", "primary_name": "John Foulk Reed", "place_id": "PL-0032", "place_name": "Monteith, Guthrie County, Iowa, USA" }, "geometry": { "type": "Point", "coordinates": [ -94.428579, 41.6313758 ] } },
{ "type": "Feature", "properties": { "PID_Person": "P-0003", "primary_name": "John Talley Reed", "place_id": "PL-0032", "place_name": "Monteith, Guthrie County, Iowa, USA" }, "geometry": { "type": "Point", "coordinates": [ -94.428579, 41.6313758 ] } },
{ "type": "Feature", "properties": { "PID_Person": "P-0002", "primary_name": "Rebecca (Talley) Reed", "place_id": "PL-0032", "place_name": "Monteith, Guthrie County, Iowa, USA" }, "geometry": { "type": "Point", "coordinates": [ -94.428579, 41.6313758 ] } },
{ "type": "Feature", "properties": { "PID_Person": "P-0034", "primary_name": "John Foulk Reed", "place_id": "PL-0033", "place_name": "Davenport, Scott County, Iowa, USA" }, "geometry": { "type": "Point", "coordinates": [ -90.59083, 41.54306 ] } },
{ "type": "Feature", "properties": { "PID_Person": "P-0034", "primary_name": "John Foulk Reed", "place_id": "PL-0034", "place_name": "Oakdale Memorial Gardens Cemetery, Davenport, Scott County, Iowa, USA" }, "geometry": { "type": "Point", "coordinates": [ -90.55133, 41.54492 ] } },
{ "type": "Feature", "properties": { "PID_Person": "P-0034", "primary_name": "John Foulk Reed", "place_id": "PL-0035", "place_name": "Jackson Township, Guthrie County, Iowa, USA" }, "geometry": { "type": "Point", "coordinates": [ -90.506882, 42.175909 ] } },
{ "type": "Feature", "properties": { "PID_Person": "P-0003", "primary_name": "John Talley Reed", "place_id": "PL-0035", "place_name": "Jackson Township, Guthrie County, Iowa, USA" }, "geometry": { "type": "Point", "coordinates": [ -90.506882, 42.175909 ] } },
{ "type": "Feature", "properties": { "PID_Person": "P-0004", "primary_name": "Elizabeth (Willey) Reed", "place_id": "PL-0035", "place_name": "Jackson Township, Guthrie County, Iowa, USA" }, "geometry": { "type": "Point", "coordinates": [ -90.506882, 42.175909 ] } },
{ "type": "Feature", "properties": { "PID_Person": "P-0001", "primary_name": "Bonum Reed", "place_id": "PL-0035", "place_name": "Jackson Township, Guthrie County, Iowa, USA" }, "geometry": { "type": "Point", "coordinates": [ -90.506882, 42.175909 ] } },
{ "type": "Feature", "properties": { "PID_Person": "P-0002", "primary_name": "Rebecca (Talley) Reed", "place_id": "PL-0035", "place_name": "Jackson Township, Guthrie County, Iowa, USA" }, "geometry": { "type": "Point", "coordinates": [ -90.506882, 42.175909 ] } },
{ "type": "Feature", "properties": { "PID_Person": "P-0034", "primary_name": "John Foulk Reed", "place_id": "PL-0036", "place_name": "Niagara Falls, Niagara County, New York, USA" }, "geometry": { "type": "Point", "coordinates": [ -79.016999999999896, 43.1 ] } },
{ "type": "Feature", "properties": { "PID_Person": "P-0034", "primary_name": "John Foulk Reed", "place_id": "PL-0037", "place_name": "Ward 6, Davenport City, Scott County, Iowa, USA" }, "geometry": { "type": "Point", "coordinates": [ -90.63937, 41.63932 ] } },
{ "type": "Feature", "properties": { "PID_Person": "P-0036", "primary_name": "Estelle Gertrude Lambert", "place_id": "PL-0038", "place_name": "Seely Township, Guthrie County, Iowa, USA" }, "geometry": { "type": "Point", "coordinates": [ -94.583079, 41.72916 ] } },
{ "type": "Feature", "properties": { "PID_Person": "P-0011", "primary_name": "Abiram Stacy Lambert", "place_id": "PL-0038", "place_name": "Seely Township, Guthrie County, Iowa, USA" }, "geometry": { "type": "Point", "coordinates": [ -94.583079, 41.72916 ] } },
{ "type": "Feature", "properties": { "PID_Person": "P-0036", "primary_name": "Estelle Gertrude Lambert", "place_id": "PL-0039", "place_name": "Prairie Home Cemetery, Waukesha, Waukesha County, Wisconsin, USA" }, "geometry": { "type": "Point", "coordinates": [ -88.24, 42.9953 ] } },
{ "type": "Feature", "properties": { "PID_Person": "P-0036", "primary_name": "Estelle Gertrude Lambert", "place_id": "PL-0041", "place_name": "Sioux Falls Ward 11, Minnehaha County, South Dakota, USA" }, "geometry": { "type": "Point", "coordinates": [ -96.8351, 43.663179 ] } },
{ "type": "Feature", "properties": { "PID_Person": "P-0021", "primary_name": "John F. Zika", "place_id": "PL-0042", "place_name": "VraÅ¾dovy Lhotice #16, BeneÅ¡ov, Bohemia, Austria" }, "geometry": { "type": "Point", "coordinates": [ 15.180881, 49.640546 ] } },
{ "type": "Feature", "properties": { "PID_Person": "P-0021", "primary_name": "John F. Zika", "place_id": "PL-0044", "place_name": "Aurora Township, Kane County, Illinois, USA" }, "geometry": { "type": "Point", "coordinates": [ -88.289, 41.766 ] } },
{ "type": "Feature", "properties": { "PID_Person": "P-0021", "primary_name": "John F. Zika", "place_id": "PL-0046", "place_name": "6 S Leamington Ave, Chicago, Cook County, Illinois, USA" }, "geometry": { "type": "Point", "coordinates": [ -87.753729, 41.880119 ] } },
{ "type": "Feature", "properties": { "PID_Person": "P-0022", "primary_name": "Delina Beatrice (Pouliot) Zika", "place_id": "PL-0047", "place_name": "Oakridge Cemetery, Hillside, Cook County, Illinois, USA" }, "geometry": { "type": "Point", "coordinates": [ -87.8914, 41.8594 ] } },
{ "type": "Feature", "properties": { "PID_Person": "P-0023", "primary_name": "Paul Pouliot", "place_id": "PL-0048", "place_name": "Saint-Laurent-de-L'ÃŽle-d'OrlÃ©ans, L'ÃŽle-d'OrlÃ©ans, QuÃ©bec, Canada" }, "geometry": { "type": "Point", "coordinates": [ -71.008093, 46.860286 ] } },
{ "type": "Feature", "properties": { "PID_Person": "P-0024", "primary_name": "Henriette (Filiatrault dit St. Louis) Pouliot", "place_id": "PL-0049", "place_name": "New York, USA" }, "geometry": { "type": "Point", "coordinates": [ -74.006, 40.7128 ] } },
{ "type": "Feature", "properties": { "PID_Person": "P-0003", "primary_name": "John Talley Reed", "place_id": "PL-0050", "place_name": "Woodsfield, Monroe County, Ohio, USA" }, "geometry": { "type": "Point", "coordinates": [ -81.114599999999896, 39.7636 ] } },
{ "type": "Feature", "properties": { "PID_Person": "P-0003", "primary_name": "John Talley Reed", "place_id": "PL-0053", "place_name": "Valley Township, Guthrie Center, Guthrie County, Iowa, USA" }, "geometry": { "type": "Point", "coordinates": [ -94.50333, 41.67778 ] } },
{ "type": "Feature", "properties": { "PID_Person": "P-0011", "primary_name": "Abiram Stacy Lambert", "place_id": "PL-0058", "place_name": "Salem, Washington County, Indiana, USA" }, "geometry": { "type": "Point", "coordinates": [ -86.101089, 38.605614 ] } },
{ "type": "Feature", "properties": { "PID_Person": "P-0011", "primary_name": "Abiram Stacy Lambert", "place_id": "PL-0059", "place_name": "Falls City, Jerome County, Idaho, USA" }, "geometry": { "type": "Point", "coordinates": [ -114.424205, 42.680464 ] } },
{ "type": "Feature", "properties": { "PID_Person": "P-0011", "primary_name": "Abiram Stacy Lambert", "place_id": "PL-0060", "place_name": "Twin Falls, Twin Falls County, Idaho, USA" }, "geometry": { "type": "Point", "coordinates": [ -114.46087, 42.56297 ] } },
{ "type": "Feature", "properties": { "PID_Person": "P-0011", "primary_name": "Abiram Stacy Lambert", "place_id": "PL-0061", "place_name": "Clay Township, Howard County, Indiana, USA" }, "geometry": { "type": "Point", "coordinates": [ -86.205684, 40.521787 ] } },
{ "type": "Feature", "properties": { "PID_Person": "P-0011", "primary_name": "Abiram Stacy Lambert", "place_id": "PL-0062", "place_name": "Franklin Township, Grundy County, Missouri, USA" }, "geometry": { "type": "Point", "coordinates": [ -93.561026, 40.233828 ] } },
{ "type": "Feature", "properties": { "PID_Person": "P-0011", "primary_name": "Abiram Stacy Lambert", "place_id": "PL-0063", "place_name": "Union Township, Guthrie County, Iowa, USA" }, "geometry": { "type": "Point", "coordinates": [ -94.665703, 41.72584 ] } },
{ "type": "Feature", "properties": { "PID_Person": "P-0011", "primary_name": "Abiram Stacy Lambert", "place_id": "PL-0065", "place_name": "Guthrie Center, Guthrie County, Iowa, USA" }, "geometry": { "type": "Point", "coordinates": [ -94.50333, 41.67778 ] } },
{ "type": "Feature", "properties": { "PID_Person": "P-0012", "primary_name": "Helen Amelia (Boles) Lambert", "place_id": "PL-0066", "place_name": "Rollin, Lenawee County, Michigan, USA" }, "geometry": { "type": "Point", "coordinates": [ -84.323903, 41.911234 ] } },
{ "type": "Feature", "properties": { "PID_Person": "P-0012", "primary_name": "Helen Amelia (Boles) Lambert", "place_id": "PL-0067", "place_name": "Violet Hill Cemetery, Perry, Dallas County, Iowa, USA" }, "geometry": { "type": "Point", "coordinates": [ -94.0969, 41.8511 ] } },
{ "type": "Feature", "properties": { "PID_Person": "P-0012", "primary_name": "Helen Amelia (Boles) Lambert", "place_id": "PL-0068", "place_name": "Mt Vernon, Franklin Township, Linn County, Iowa, USA" }, "geometry": { "type": "Point", "coordinates": [ -91.4163, 41.9211 ] } },
{ "type": "Feature", "properties": { "PID_Person": "P-0012", "primary_name": "Helen Amelia (Boles) Lambert", "place_id": "PL-0069", "place_name": "Ward 4, Cedar Rapids, Linn County, Iowa, USA" }, "geometry": { "type": "Point", "coordinates": [ -91.648008, 41.939613 ] } },
{ "type": "Feature", "properties": { "PID_Person": "P-0001", "primary_name": "Bonum Reed", "place_id": "PL-0070", "place_name": "Wills Creek, Coshocton County, Ohio, USA" }, "geometry": { "type": "Point", "coordinates": [ -81.85069, 40.18007 ] } },
{ "type": "Feature", "properties": { "PID_Person": "P-0001", "primary_name": "Bonum Reed", "place_id": "PL-0072", "place_name": "Ohio, USA" }, "geometry": { "type": "Point", "coordinates": [ -82.9071, 40.4173 ] } },
{ "type": "Feature", "properties": { "PID_Person": "P-0002", "primary_name": "Rebecca (Talley) Reed", "place_id": "PL-0072", "place_name": "Ohio, USA" }, "geometry": { "type": "Point", "coordinates": [ -82.9071, 40.4173 ] } },
{ "type": "Feature", "properties": { "PID_Person": "P-0002", "primary_name": "Rebecca (Talley) Reed", "place_id": "PL-0074", "place_name": "Talley Town, Morgan County, Ohio, USA" }, "geometry": { "type": "Point", "coordinates": [ -81.822435999999897, 39.652191 ] } },
{ "type": "Feature", "properties": { "PID_Person": "P-0002", "primary_name": "Rebecca (Talley) Reed", "place_id": "PL-0075", "place_name": "Guthrie Center city, Valley Township, Guthrie County, Iowa, USA" }, "geometry": { "type": "Point", "coordinates": [ -94.50333, 41.67778 ] } }
]
}
